start=new Date('2022-04-23T00:00:00.000Z').valueOf();
sats=[{"EPOCH":"2022-04-22T16:00:00.999936","ECCENTRICITY":"0.00012570","MEAN_ANOMALY":"138.2794","REV_AT_EPOCH":"823","TIME_SYSTEM":"UTC","SEMIMAJOR_AXIS":"6727.779","DECAY_DATE":null,"CENTER_NAME":"EARTH","ELEMENT_SET_NO":"999","SITE":"AFETR","OBJECT_TYPE":"PAYLOAD","EPHEMERIS_TYPE":"0","ARG_OF_PERICENTER":"87.0848","LAUNCH_DATE":"2022-03-09","MEAN_MOTION_DDOT":"0.0000000000000","COUNTRY_CODE":"US","MEAN_MOTION_DOT":"-0.00084473","PERIAPSIS":"348.798","BSTAR":"-0.00060246000000","CLASSIFICATION_TYPE":"U","REF_FRAME":"TEME","GP_ID":"201801448","TLE_LINE2":"2 51975  53.2141 281.4964 0001257  87.0848 138.2794 15.73240762  8233","NORAD_CAT_ID":"51975","FILE":"3411430","OBJECT_ID":"2022-025V","MEAN_MOTION":"15.73240762","APOAPSIS":"350.490","OBJECT_NAME":"STARLINK-3674","MEAN_ELEMENT_THEORY":"SGP4","RA_OF_ASC_NODE":"281.4964","TLE_LINE1":"1 51975U 22025V   22112.66667824 -.00084473  00000-0 -60246-3 0  9990","PERIOD":"91.531","RCS_SIZE":"LARGE","INCLINATION":"53.2141"},{"INCLINATION":"53.2174","RCS_SIZE":"LARGE","TLE_LINE1":"1 51976U 22025W   22112.66667824 -.00680482  00000-0 -14133-1 0  9995","PERIOD":"93.044","OBJECT_NAME":"STARLINK-3663","MEAN_MOTION":"15.47649114","APOAPSIS":"424.498","RA_OF_ASC_NODE":"283.6735","MEAN_ELEMENT_THEORY":"SGP4","OBJECT_ID":"2022-025W","REF_FRAME":"TEME","FILE":"3411439","TLE_LINE2":"2 51976  53.2174 283.6735 0001309  78.8054 168.7030 15.47649114  8196","GP_ID":"201801476","NORAD_CAT_ID":"51976","CLASSIFICATION_TYPE":"U","BSTAR":"-0.01413300000000","MEAN_MOTION_DOT":"-0.00680482","PERIAPSIS":"422.717","MEAN_MOTION_DDOT":"0.0000000000000","COUNTRY_CODE":"US","LAUNCH_DATE":"2022-03-09","ARG_OF_PERICENTER":"78.8054","SITE":"AFETR","OBJECT_TYPE":"PAYLOAD","EPHEMERIS_TYPE":"0","CENTER_NAME":"EARTH","DECAY_DATE":null,"ELEMENT_SET_NO":"999","REV_AT_EPOCH":"819","MEAN_ANOMALY":"168.7030","SEMIMAJOR_AXIS":"6801.742","TIME_SYSTEM":"UTC","ECCENTRICITY":"0.00013090","EPOCH":"2022-04-22T16:00:00.999936"},{"CLASSIFICATION_TYPE":"U","FILE":"3411439","GP_ID":"201801918","TLE_LINE2":"2 51977  53.2147 280.7902 0001164  99.0015 111.4193 15.73233231  8218","NORAD_CAT_ID":"51977","REF_FRAME":"TEME","PERIAPSIS":"348.882","MEAN_MOTION_DOT":"-0.00080019","BSTAR":"-0.00057035000000","PERIOD":"91.531","TLE_LINE1":"1 51977U 22025X   22112.66667824 -.00080019  00000-0 -57035-3 0  9996","RCS_SIZE":"LARGE","INCLINATION":"53.2147","OBJECT_ID":"2022-025X","RA_OF_ASC_NODE":"280.7902","MEAN_ELEMENT_THEORY":"SGP4","OBJECT_NAME":"STARLINK-3660","MEAN_MOTION":"15.73233231","APOAPSIS":"350.449","TIME_SYSTEM":"UTC","SEMIMAJOR_AXIS":"6727.800","REV_AT_EPOCH":"821","MEAN_ANOMALY":"111.4193","ELEMENT_SET_NO":"999","CENTER_NAME":"EARTH","DECAY_DATE":null,"EPOCH":"2022-04-22T16:00:00.999936","ECCENTRICITY":"0.00011640","COUNTRY_CODE":"US","MEAN_MOTION_DDOT":"0.0000000000000","LAUNCH_DATE":"2022-03-09","ARG_OF_PERICENTER":"99.0015","SITE":"AFETR","OBJECT_TYPE":"PAYLOAD","EPHEMERIS_TYPE":"0"},{"MEAN_ANOMALY":"50.5150","REV_AT_EPOCH":"369","TIME_SYSTEM":"UTC","SEMIMAJOR_AXIS":"6810.797","DECAY_DATE":null,"CENTER_NAME":"EARTH","ELEMENT_SET_NO":"999","EPOCH":"2022-04-22T14:00:01.000224","ECCENTRICITY":"0.00012250","LAUNCH_DATE":"2022-03-09","MEAN_MOTION_DDOT":"0.0000000000000","COUNTRY_CODE":"US","SITE":"AFETR","OBJECT_TYPE":"PAYLOAD","EPHEMERIS_TYPE":"0","ARG_OF_PERICENTER":"86.8449","CLASSIFICATION_TYPE":"U","REF_FRAME":"TEME","TLE_LINE2":"2 51978  53.2174 284.0587 0001225  86.8449  50.5150 15.44563982  3698","GP_ID":"201827486","NORAD_CAT_ID":"51978","FILE":"3411458","MEAN_MOTION_DOT":"-0.00691742","PERIAPSIS":"431.827","BSTAR":"-0.01579600000000","TLE_LINE1":"1 51978U 22025Y   22112.58334491 -.00691742  00000-0 -15796-1 0  9996","PERIOD":"93.230","INCLINATION":"53.2174","RCS_SIZE":"LARGE","OBJECT_ID":"2022-025Y","APOAPSIS":"433.496","MEAN_MOTION":"15.44563982","OBJECT_NAME":"STARLINK-3666","MEAN_ELEMENT_THEORY":"SGP4","RA_OF_ASC_NODE":"284.0587"},{"MEAN_ANOMALY":"164.0044","REV_AT_EPOCH":"820","SEMIMAJOR_AXIS":"6802.089","TIME_SYSTEM":"UTC","DECAY_DATE":null,"CENTER_NAME":"EARTH","ELEMENT_SET_NO":"999","EPOCH":"2022-04-22T16:00:00.999936","ECCENTRICITY":"0.00013410","LAUNCH_DATE":"2022-03-09","COUNTRY_CODE":"US","MEAN_MOTION_DDOT":"0.0000000000000","OBJECT_TYPE":"PAYLOAD","SITE":"AFETR","EPHEMERIS_TYPE":"0","ARG_OF_PERICENTER":"74.7750","CLASSIFICATION_TYPE":"U","REF_FRAME":"TEME","TLE_LINE2":"2 51979  53.2174 283.6759 0001341  74.7750 164.0044 15.47530641  8209","GP_ID":"201801483","NORAD_CAT_ID":"51979","FILE":"3411440","MEAN_MOTION_DOT":"-0.00688678","PERIAPSIS":"423.042","BSTAR":"-0.01418700000000","TLE_LINE1":"1 51979U 22025Z   22112.66667824 -.00688678  00000-0 -14187-1 0  9992","PERIOD":"93.051","RCS_SIZE":"LARGE","INCLINATION":"53.2174","OBJECT_ID":"2022-025Z","MEAN_MOTION":"15.47530641","APOAPSIS":"424.867","OBJECT_NAME":"STARLINK-3656","MEAN_ELEMENT_THEORY":"SGP4","RA_OF_ASC_NODE":"283.6759"},{"TIME_SYSTEM":"UTC","SEMIMAJOR_AXIS":"6810.078","REV_AT_EPOCH":"369","MEAN_ANOMALY":"75.3331","ELEMENT_SET_NO":"999","CENTER_NAME":"EARTH","DECAY_DATE":null,"EPOCH":"2022-04-22T14:00:01.000224","ECCENTRICITY":"0.00012770","COUNTRY_CODE":"US","MEAN_MOTION_DDOT":"0.0000000000000","LAUNCH_DATE":"2022-03-09","ARG_OF_PERICENTER":"80.4619","SITE":"AFETR","EPHEMERIS_TYPE":"0","OBJECT_TYPE":"PAYLOAD","CLASSIFICATION_TYPE":"U","FILE":"3411458","TLE_LINE2":"2 51980  53.2174 284.0590 0001277  80.4619  75.3331 15.44808511  3697","GP_ID":"201827569","NORAD_CAT_ID":"51980","REF_FRAME":"TEME","PERIAPSIS":"431.073","MEAN_MOTION_DOT":"-0.00691330","BSTAR":"-0.01565400000000","PERIOD":"93.215","TLE_LINE1":"1 51980U 22025AA  22112.58334491 -.00691330  00000-0 -15654-1 0  9995","INCLINATION":"53.2174","RCS_SIZE":"LARGE","OBJECT_ID":"2022-025AA","RA_OF_ASC_NODE":"284.0590","MEAN_ELEMENT_THEORY":"SGP4","OBJECT_NAME":"STARLINK-3649","MEAN_MOTION":"15.44808511","APOAPSIS":"432.812"},{"INCLINATION":"53.2174","RCS_SIZE":"LARGE","PERIOD":"93.245","TLE_LINE1":"1 51981U 22025AB  22112.58334491 -.00692450  00000-0 -15944-1 0  9992","MEAN_ELEMENT_THEORY":"SGP4","RA_OF_ASC_NODE":"284.0587","MEAN_MOTION":"15.44323664","APOAPSIS":"434.185","OBJECT_NAME":"STARLINK-3635","OBJECT_ID":"2022-025AB","NORAD_CAT_ID":"51981","TLE_LINE2":"2 51981  53.2174 284.0587 0001200  80.2333  38.1924 15.44323664  3697","GP_ID":"201826985","FILE":"3411458","REF_FRAME":"TEME","CLASSIFICATION_TYPE":"U","BSTAR":"-0.01594400000000","PERIAPSIS":"432.551","MEAN_MOTION_DOT":"-0.00692450","LAUNCH_DATE":"2022-03-09","MEAN_MOTION_DDOT":"0.0000000000000","COUNTRY_CODE":"US","SITE":"AFETR","OBJECT_TYPE":"PAYLOAD","EPHEMERIS_TYPE":"0","ARG_OF_PERICENTER":"80.2333","ELEMENT_SET_NO":"999","DECAY_DATE":null,"CENTER_NAME":"EARTH","TIME_SYSTEM":"UTC","SEMIMAJOR_AXIS":"6811.503","MEAN_ANOMALY":"38.1924","REV_AT_EPOCH":"369","ECCENTRICITY":"0.00012000","EPOCH":"2022-04-22T14:00:01.000224"},{"ARG_OF_PERICENTER":"66.4742","SITE":"AFETR","OBJECT_TYPE":"PAYLOAD","EPHEMERIS_TYPE":"0","MEAN_MOTION_DDOT":"0.0000000000000","COUNTRY_CODE":"US","LAUNCH_DATE":"2022-03-09","EPOCH":"2022-04-22T14:00:01.000224","ECCENTRICITY":"0.00013790","REV_AT_EPOCH":"369","MEAN_ANOMALY":"98.6438","TIME_SYSTEM":"UTC","SEMIMAJOR_AXIS":"6809.724","CENTER_NAME":"EARTH","DECAY_DATE":null,"ELEMENT_SET_NO":"999","OBJECT_ID":"2022-025AC","OBJECT_NAME":"STARLINK-3650","MEAN_MOTION":"15.44928755","APOAPSIS":"432.528","RA_OF_ASC_NODE":"284.0581","MEAN_ELEMENT_THEORY":"SGP4","TLE_LINE1":"1 51982U 22025AC  22112.58334491 -.00690703  00000-0 -15574-1 0  9991","PERIOD":"93.208","INCLINATION":"53.2174","RCS_SIZE":"LARGE","MEAN_MOTION_DOT":"-0.00690703","PERIAPSIS":"430.650","BSTAR":"-0.01557400000000","CLASSIFICATION_TYPE":"U","REF_FRAME":"TEME","FILE":"3411458","TLE_LINE2":"2 51982  53.2174 284.0581 0001379  66.4742  98.6438 15.44928755  3692","GP_ID":"201827153","NORAD_CAT_ID":"51982"},{"EPOCH":"2022-04-22T14:00:01.000224","ECCENTRICITY":"0.00012190","TIME_SYSTEM":"UTC","SEMIMAJOR_AXIS":"6811.156","REV_AT_EPOCH":"369","MEAN_ANOMALY":"41.6806","ELEMENT_SET_NO":"999","CENTER_NAME":"EARTH","DECAY_DATE":null,"ARG_OF_PERICENTER":"86.4066","EPHEMERIS_TYPE":"0","SITE":"AFETR","OBJECT_TYPE":"PAYLOAD","MEAN_MOTION_DDOT":"0.0000000000000","COUNTRY_CODE":"US","LAUNCH_DATE":"2022-03-09","PERIAPSIS":"432.191","MEAN_MOTION_DOT":"-0.00691977","BSTAR":"-0.01586800000000","CLASSIFICATION_TYPE":"U","FILE":"3411458","TLE_LINE2":"2 51983  53.2174 284.0583 0001219  86.4066  41.6806 15.44441763  3695","GP_ID":"201827403","NORAD_CAT_ID":"51983","REF_FRAME":"TEME","OBJECT_ID":"2022-025AD","RA_OF_ASC_NODE":"284.0583","MEAN_ELEMENT_THEORY":"SGP4","OBJECT_NAME":"STARLINK-3655","APOAPSIS":"433.851","MEAN_MOTION":"15.44441763","PERIOD":"93.238","TLE_LINE1":"1 51983U 22025AD  22112.58334491 -.00691977  00000-0 -15868-1 0  9992","RCS_SIZE":"LARGE","INCLINATION":"53.2174"},{"MEAN_MOTION_DDOT":"0.0000000000000","COUNTRY_CODE":"US","LAUNCH_DATE":"2022-03-09","ARG_OF_PERICENTER":"46.7483","OBJECT_TYPE":"PAYLOAD","SITE":"AFETR","EPHEMERIS_TYPE":"0","REV_AT_EPOCH":"821","MEAN_ANOMALY":"345.0545","SEMIMAJOR_AXIS":"6804.170","TIME_SYSTEM":"UTC","CENTER_NAME":"EARTH","DECAY_DATE":null,"ELEMENT_SET_NO":"999","EPOCH":"2022-04-22T20:00:01.000224","ECCENTRICITY":"0.00014250","TLE_LINE1":"1 51984U 22025AE  22112.83334491 -.00694560  00000-0 -14676-1 0  9998","PERIOD":"93.094","RCS_SIZE":"LARGE","INCLINATION":"53.2175","OBJECT_ID":"2022-025AE","OBJECT_NAME":"STARLINK-3664","APOAPSIS":"427.005","MEAN_MOTION":"15.46820780","RA_OF_ASC_NODE":"282.8792","MEAN_ELEMENT_THEORY":"SGP4","CLASSIFICATION_TYPE":"U","REF_FRAME":"TEME","FILE":"3411487","TLE_LINE2":"2 51984  53.2175 282.8792 0001425  46.7483 345.0545 15.46820780  8212","NORAD_CAT_ID":"51984","GP_ID":"201828070","MEAN_MOTION_DOT":"-0.00694560","PERIAPSIS":"425.066","BSTAR":"-0.01467600000000"}];
